start=new Date('2022-05-03T00:00:00.000Z').valueOf();
sats=[{"RCS_SIZE":"LARGE","OBJECT_TYPE":"PAYLOAD","NORAD_CAT_ID":"46780","RA_OF_ASC_NODE":"148.8361","SITE":"AFETR","MEAN_MOTION_DOT":"0.00001164","ELEMENT_SET_NO":"999","DECAY_DATE":null,"REV_AT_EPOCH":"8471","INCLINATION":"53.0553","MEAN_MOTION":"15.06391682","APOAPSIS":"548.603","PERIOD":"95.593","GP_ID":"202520535","TLE_LINE2":"2 46780  53.0553 148.8361 0001970  42.1460 317.9680 15.06391682 84718","SEMIMAJOR_AXIS":"6925.374","MEAN_ELEMENT_THEORY":"SGP4","EPHEMERIS_TYPE":"0","EPOCH":"2022-05-02T11:32:43.924416","MEAN_ANOMALY":"317.9680","LAUNCH_DATE":"2020-10-24","TIME_SYSTEM":"UTC","TLE_LINE1":"1 46780U 20074AT  22122.48106394  .00001164  00000-0  97066-4 0  9996","OBJECT_NAME":"STARLINK-1832","PERIAPSIS":"545.875","COUNTRY_CODE":"US","REF_FRAME":"TEME","CENTER_NAME":"EARTH","FILE":"3425830","ARG_OF_PERICENTER":"42.1460","MEAN_MOTION_DDOT":"0.0000000000000","OBJECT_ID":"2020-074AT","ECCENTRICITY":"0.00019700","CLASSIFICATION_TYPE":"U","BSTAR":"0.00009706600000"},{"REF_FRAME":"TEME","COUNTRY_CODE":"US","CENTER_NAME":"EARTH","PERIAPSIS":"545.885","TLE_LINE1":"1 46781U 20074AU  22122.83030478  .00001828  00000-0  14162-3 0  9997","TIME_SYSTEM":"UTC","OBJECT_NAME":"STARLINK-1834","CLASSIFICATION_TYPE":"U","BSTAR":"0.00014162000000","MEAN_MOTION_DDOT":"0.0000000000000","OBJECT_ID":"2020-074AU","ECCENTRICITY":"0.00019520","ARG_OF_PERICENTER":"52.3760","FILE":"3426306","SITE":"AFETR","MEAN_MOTION_DOT":"0.00001828","REV_AT_EPOCH":"8463","DECAY_DATE":null,"ELEMENT_SET_NO":"999","MEAN_MOTION":"15.06392440","INCLINATION":"53.0547","RA_OF_ASC_NODE":"157.2634","RCS_SIZE":"LARGE","NORAD_CAT_ID":"46781","OBJECT_TYPE":"PAYLOAD","MEAN_ANOMALY":"307.7406","LAUNCH_DATE":"2020-10-24","MEAN_ELEMENT_THEORY":"SGP4","EPHEMERIS_TYPE":"0","EPOCH":"2022-05-02T19:55:38.332992","PERIOD":"95.593","GP_ID":"202555457","TLE_LINE2":"2 46781  53.0547 157.2634 0001952  52.3760 307.7406 15.06392440 84632","SEMIMAJOR_AXIS":"6925.372","APOAPSIS":"548.589"},{"MEAN_ANOMALY":"311.6530","LAUNCH_DATE":"2020-10-24","MEAN_ELEMENT_THEORY":"SGP4","EPHEMERIS_TYPE":"0","EPOCH":"2022-05-02T19:14:30.043968","PERIOD":"95.592","TLE_LINE2":"2 46782  53.0525 147.3761 0002095  48.4638 311.6530 15.06408699 84769","GP_ID":"202555707","SEMIMAJOR_AXIS":"6925.322","APOAPSIS":"548.638","SITE":"AFETR","MEAN_MOTION_DOT":"0.00007083","REV_AT_EPOCH":"8476","DECAY_DATE":null,"ELEMENT_SET_NO":"999","MEAN_MOTION":"15.06408699","INCLINATION":"53.0525","RA_OF_ASC_NODE":"147.3761","RCS_SIZE":"LARGE","NORAD_CAT_ID":"46782","OBJECT_TYPE":"PAYLOAD","CLASSIFICATION_TYPE":"U","BSTAR":"0.00049378000000","MEAN_MOTION_DDOT":"0.0000000000000","ECCENTRICITY":"0.00020950","OBJECT_ID":"2020-074AV","ARG_OF_PERICENTER":"48.4638","FILE":"3426306","COUNTRY_CODE":"US","REF_FRAME":"TEME","CENTER_NAME":"EARTH","PERIAPSIS":"545.736","TLE_LINE1":"1 46782U 20074AV  22122.80173662  .00007083  00000-0  49378-3 0  9994","TIME_SYSTEM":"UTC","OBJECT_NAME":"STARLINK-1835"},{"MEAN_MOTION_DOT":"0.00001606","SITE":"AFETR","DECAY_DATE":null,"ELEMENT_SET_NO":"999","REV_AT_EPOCH":"8471","INCLINATION":"53.0543","MEAN_MOTION":"15.06390070","RA_OF_ASC_NODE":"148.8118","RCS_SIZE":"LARGE","OBJECT_TYPE":"PAYLOAD","NORAD_CAT_ID":"46783","MEAN_ANOMALY":"309.1476","LAUNCH_DATE":"2020-10-24","MEAN_ELEMENT_THEORY":"SGP4","EPHEMERIS_TYPE":"0","EPOCH":"2022-05-02T11:38:02.710176","PERIOD":"95.593","TLE_LINE2":"2 46783  53.0543 148.8118 0001926  50.9684 309.1476 15.06390070 84712","SEMIMAJOR_AXIS":"6925.379","GP_ID":"202522286","APOAPSIS":"548.578","COUNTRY_CODE":"US","REF_FRAME":"TEME","CENTER_NAME":"EARTH","PERIAPSIS":"545.910","TIME_SYSTEM":"UTC","TLE_LINE1":"1 46783U 20074AW  22122.48475359  .00001606  00000-0  12674-3 0  9991","OBJECT_NAME":"STARLINK-1851","CLASSIFICATION_TYPE":"U","BSTAR":"0.00012674000000","MEAN_MOTION_DDOT":"0.0000000000000","ECCENTRICITY":"0.00019260","OBJECT_ID":"2020-074AW","ARG_OF_PERICENTER":"50.9684","FILE":"3425830"},{"ARG_OF_PERICENTER":"55.2745","FILE":"3425830","BSTAR":"-0.00000724010000","CLASSIFICATION_TYPE":"U","OBJECT_ID":"2020-074AX","ECCENTRICITY":"0.00016110","MEAN_MOTION_DDOT":"0.0000000000000","OBJECT_NAME":"STARLINK-1882","TIME_SYSTEM":"UTC","TLE_LINE1":"1 46784U 20074AX  22122.48844155 -.00000389  00000-0 -72401-5 0  9991","COUNTRY_CODE":"US","REF_FRAME":"TEME","CENTER_NAME":"EARTH","PERIAPSIS":"546.141","GP_ID":"202521036","TLE_LINE2":"2 46784  53.0543 148.8007 0001611  55.2745 304.8395 15.06385891 84714","SEMIMAJOR_AXIS":"6925.392","PERIOD":"95.593","APOAPSIS":"548.372","LAUNCH_DATE":"2020-10-24","MEAN_ANOMALY":"304.8395","EPHEMERIS_TYPE":"0","EPOCH":"2022-05-02T11:43:21.349920","MEAN_ELEMENT_THEORY":"SGP4","RA_OF_ASC_NODE":"148.8007","OBJECT_TYPE":"PAYLOAD","NORAD_CAT_ID":"46784","RCS_SIZE":"LARGE","ELEMENT_SET_NO":"999","DECAY_DATE":null,"REV_AT_EPOCH":"8471","INCLINATION":"53.0543","MEAN_MOTION":"15.06385891","MEAN_MOTION_DOT":"-0.00000389","SITE":"AFETR"},{"MEAN_MOTION_DDOT":"0.0000000000000","ECCENTRICITY":"0.00019600","OBJECT_ID":"2020-074AY","CLASSIFICATION_TYPE":"U","BSTAR":"0.00051599000000","FILE":"3426306","ARG_OF_PERICENTER":"49.8198","PERIAPSIS":"545.820","COUNTRY_CODE":"US","REF_FRAME":"TEME","CENTER_NAME":"EARTH","TIME_SYSTEM":"UTC","TLE_LINE1":"1 46785U 20074AY  22122.80542402  .00007415  00000-0  51599-3 0  9996","OBJECT_NAME":"STARLINK-1883","MEAN_ELEMENT_THEORY":"SGP4","EPHEMERIS_TYPE":"0","EPOCH":"2022-05-02T19:19:48.635328","MEAN_ANOMALY":"310.2962","LAUNCH_DATE":"2020-10-24","APOAPSIS":"548.535","PERIOD":"95.591","SEMIMAJOR_AXIS":"6925.312","TLE_LINE2":"2 46785  53.0516 147.3699 0001960  49.8198 310.2962 15.06411796 84764","GP_ID":"202554957","SITE":"AFETR","MEAN_MOTION_DOT":"0.00007415","ELEMENT_SET_NO":"999","DECAY_DATE":null,"REV_AT_EPOCH":"8476","MEAN_MOTION":"15.06411796","INCLINATION":"53.0516","RCS_SIZE":"LARGE","OBJECT_TYPE":"PAYLOAD","NORAD_CAT_ID":"46785","RA_OF_ASC_NODE":"147.3699"},{"FILE":"3426306","ARG_OF_PERICENTER":"55.0755","MEAN_MOTION_DDOT":"0.0000000000000","ECCENTRICITY":"0.00017430","OBJECT_ID":"2020-074AZ","CLASSIFICATION_TYPE":"U","BSTAR":"0.00006214100000","TIME_SYSTEM":"UTC","TLE_LINE1":"1 46786U 20074AZ  22122.71880127  .00000644  00000-0  62141-4 0  9999","OBJECT_NAME":"STARLINK-1893","PERIAPSIS":"546.022","COUNTRY_CODE":"US","REF_FRAME":"TEME","CENTER_NAME":"EARTH","APOAPSIS":"548.436","PERIOD":"95.592","TLE_LINE2":"2 46786  53.0551 127.7579 0001743  55.0755 305.0397 15.06394882 85031","SEMIMAJOR_AXIS":"6925.364","GP_ID":"202555207","MEAN_ELEMENT_THEORY":"SGP4","EPOCH":"2022-05-02T17:15:04.429728","EPHEMERIS_TYPE":"0","MEAN_ANOMALY":"305.0397","LAUNCH_DATE":"2020-10-24","RCS_SIZE":"LARGE","OBJECT_TYPE":"PAYLOAD","NORAD_CAT_ID":"46786","RA_OF_ASC_NODE":"127.7579","SITE":"AFETR","MEAN_MOTION_DOT":"0.00000644","DECAY_DATE":null,"REV_AT_EPOCH":"8503","MEAN_MOTION":"15.06394882","ELEMENT_SET_NO":"999","INCLINATION":"53.0551"},{"TLE_LINE1":"1 46787U 20074BA  22122.71142760  .00000495  00000-0  52147-4 0  9993","TIME_SYSTEM":"UTC","OBJECT_NAME":"STARLINK-1899","COUNTRY_CODE":"US","CENTER_NAME":"EARTH","REF_FRAME":"TEME","PERIAPSIS":"546.017","ARG_OF_PERICENTER":"53.0634","FILE":"3426306","CLASSIFICATION_TYPE":"U","BSTAR":"0.00005214700000","MEAN_MOTION_DDOT":"0.0000000000000","ECCENTRICITY":"0.00017350","OBJECT_ID":"2020-074BA","RA_OF_ASC_NODE":"127.7795","RCS_SIZE":"LARGE","OBJECT_TYPE":"PAYLOAD","NORAD_CAT_ID":"46787","MEAN_MOTION_DOT":"0.00000495","SITE":"AFETR","DECAY_DATE":null,"REV_AT_EPOCH":"8503","ELEMENT_SET_NO":"999","MEAN_MOTION":"15.06398477","INCLINATION":"53.0544","PERIOD":"95.592","SEMIMAJOR_AXIS":"6925.353","TLE_LINE2":"2 46787  53.0544 127.7795 0001735  53.0634 307.0514 15.06398477 85036","GP_ID":"202556457","APOAPSIS":"548.420","MEAN_ANOMALY":"307.0514","LAUNCH_DATE":"2020-10-24","MEAN_ELEMENT_THEORY":"SGP4","EPOCH":"2022-05-02T17:04:27.344640","EPHEMERIS_TYPE":"0"},{"REF_FRAME":"TEME","COUNTRY_CODE":"US","CENTER_NAME":"EARTH","PERIAPSIS":"545.746","TLE_LINE1":"1 46788U 20074BB  22122.70406228  .00000218  00000-0  33574-4 0  9991","TIME_SYSTEM":"UTC","OBJECT_NAME":"STARLINK-1929","CLASSIFICATION_TYPE":"U","BSTAR":"0.00003357400000","MEAN_MOTION_DDOT":"0.0000000000000","OBJECT_ID":"2020-074BB","ECCENTRICITY":"0.00021760","ARG_OF_PERICENTER":"40.2841","FILE":"3426306","SITE":"AFETR","MEAN_MOTION_DOT":"0.00000218","REV_AT_EPOCH":"8503","DECAY_DATE":null,"ELEMENT_SET_NO":"999","MEAN_MOTION":"15.06387217","INCLINATION":"53.0544","RA_OF_ASC_NODE":"127.8339","RCS_SIZE":"LARGE","NORAD_CAT_ID":"46788","OBJECT_TYPE":"PAYLOAD","MEAN_ANOMALY":"319.8309","LAUNCH_DATE":"2020-10-24","MEAN_ELEMENT_THEORY":"SGP4","EPHEMERIS_TYPE":"0","EPOCH":"2022-05-02T16:53:50.980992","PERIOD":"95.593","TLE_LINE2":"2 46788  53.0544 127.8339 0002176  40.2841 319.8309 15.06387217 85033","SEMIMAJOR_AXIS":"6925.388","GP_ID":"202556703","APOAPSIS":"548.760"},{"MEAN_MOTION_DDOT":"0.0000000000000","OBJECT_ID":"2020-074BC","ECCENTRICITY":"0.00018000","CLASSIFICATION_TYPE":"U","BSTAR":"0.00000911920000","FILE":"3426306","ARG_OF_PERICENTER":"49.4192","PERIAPSIS":"546.011","COUNTRY_CODE":"US","CENTER_NAME":"EARTH","REF_FRAME":"TEME","TIME_SYSTEM":"UTC","TLE_LINE1":"1 46789U 20074BC  22122.57872104 -.00000146  00000-0  91192-5 0  9999","OBJECT_NAME":"STARLINK-1930","MEAN_ELEMENT_THEORY":"SGP4","EPHEMERIS_TYPE":"0","EPOCH":"2022-05-02T13:53:21.497856","MEAN_ANOMALY":"310.6953","LAUNCH_DATE":"2020-10-24","APOAPSIS":"548.504","PERIOD":"95.593","TLE_LINE2":"2 46789  53.0561 158.3917 0001800  49.4192 310.6953 15.06385787 84591","GP_ID":"202555458","SEMIMAJOR_AXIS":"6925.392","SITE":"AFETR","MEAN_MOTION_DOT":"-0.00000146","DECAY_DATE":null,"REV_AT_EPOCH":"8459","MEAN_MOTION":"15.06385787","ELEMENT_SET_NO":"999","INCLINATION":"53.0561","RCS_SIZE":"LARGE","OBJECT_TYPE":"PAYLOAD","NORAD_CAT_ID":"46789","RA_OF_ASC_NODE":"158.3917"}];
